{
  "type": "FeatureCollection",
  "features": [
    {
      "type": "Feature",
      "properties": {
        "norad_id": 37238,
        "name": "INTELSAT 17 (IS-17)",
        "group": "intelsat",
        "lat": -0.012506698127015145,
        "lon": 33.80034159162939,
        "alt_km": 35788.24209035837,
        "timestamp": "2025-12-26T15:29:39.105943+00:00",
        "meta_object_name": "INTELSAT 17 (IS-17)",
        "meta_object_id": "2010-065B",
        "meta_epoch": "2025-12-26T02:10:38.891424",
        "meta_mean_motion": 1.00271955,
        "meta_eccentricity": 0.00028307,
        "meta_inclination": 0.028,
        "meta_ra_of_asc_node": 73.4658,
        "meta_arg_of_pericenter": 219.704,
        "meta_mean_anomaly": 260.3074,
        "meta_ephemeris_type": 0,
        "meta_classification_type": "U",
        "meta_norad_cat_id": 37238,
        "meta_element_set_no": 999,
        "meta_rev_at_epoch": 5151,
        "meta_bstar": 0,
        "meta_mean_motion_dot": 0,
        "meta_mean_motion_ddot": 0,
        "tle_line1": "1 37238U 10065B   25360.09072791  .00000000  00000+0  00000+0 0  9994",
        "tle_line2": "2 37238   0.0280  73.4658 0002830 219.7040 260.3074  1.00271955 51518"
      },
      "geometry": {
        "type": "Point",
        "coordinates": [
          33.80034159162939,
          -0.012506698127015145
        ]
      }
    },
    {
      "type": "Feature",
      "properties": {
        "norad_id": 37392,
        "name": "INTELSAT 28 (IS-28)",
        "group": "intelsat",
        "lat": -0.7221372682583768,
        "lon": -63.89958222585187,
        "alt_km": 35771.50175994676,
        "timestamp": "2025-12-26T15:29:39.105954+00:00",
        "meta_object_name": "INTELSAT 28 (IS-28)",
        "meta_object_id": "2011-016A",
        "meta_epoch": "2025-12-26T00:24:38.640960",
        "meta_mean_motion": 1.00271568,
        "meta_eccentricity": 0.00037974,
        "meta_inclination": 1.3569,
        "meta_ra_of_asc_node": 84.9113,
        "meta_arg_of_pericenter": 188.0675,
        "meta_mean_anomaly": 156.2464,
        "meta_ephemeris_type": 0,
        "meta_classification_type": "U",
        "meta_norad_cat_id": 37392,
        "meta_element_set_no": 999,
        "meta_rev_at_epoch": 5154,
        "meta_bstar": 0,
        "meta_mean_motion_dot": -2.03e-06,
        "meta_mean_motion_ddot": 0,
        "tle_line1": "1 37392U 11016A   25360.01711390 -.00000203  00000+0  00000+0 0  9995",
        "tle_line2": "2 37392   1.3569  84.9113 0003797 188.0675 156.2464  1.00271568 51540"
      },
      "geometry": {
        "type": "Point",
        "coordinates": [
          -63.89958222585187,
          -0.7221372682583768
        ]
      }
    },
    {
      "type": "Feature",
      "properties": {
        "norad_id": 37834,
        "name": "INTELSAT 18 (IS-18)",
        "group": "intelsat",
        "lat": 0.0011196760629559861,
        "lon": 147.7779152667826,
        "alt_km": 35792.49060706748,
        "timestamp": "2025-12-26T15:29:39.105966+00:00",
        "meta_object_name": "INTELSAT 18 (IS-18)",
        "meta_object_id": "2011-056A",
        "meta_epoch": "2025-12-26T03:40:38.798112",
        "meta_mean_motion": 1.00271849,
        "meta_eccentricity": 0.00019264,
        "meta_inclination": 0.0171,
        "meta_ra_of_asc_node": 297.462,
        "meta_arg_of_pericenter": 352.9016,
        "meta_mean_anomaly": 39.6981,
        "meta_ephemeris_type": 0,
        "meta_classification_type": "U",
        "meta_norad_cat_id": 37834,
        "meta_element_set_no": 999,
        "meta_rev_at_epoch": 5207,
        "meta_bstar": 0,
        "meta_mean_motion_dot": 7.5e-07,
        "meta_mean_motion_ddot": 0,
        "tle_line1": "1 37834U 11056A   25360.15322683  .00000075  00000+0  00000+0 0  9994",
        "tle_line2": "2 37834   0.0171 297.4620 0001926 352.9016  39.6981  1.00271849 52072"
      },
      "geometry": {
        "type": "Point",
        "coordinates": [
          147.7779152667826,
          0.0011196760629559861
        ]
      }
    },
    {
      "type": "Feature",
      "properties": {
        "norad_id": 38098,
        "name": "INTELSAT 22 (IS-22)",
        "group": "intelsat",
        "lat": 8.22893918804027e-06,
        "lon": 39.89895246894876,
        "alt_km": 35787.95093940026,
        "timestamp": "2025-12-26T15:29:39.105979+00:00",
        "meta_object_name": "INTELSAT 22 (IS-22)",
        "meta_object_id": "2012-011A",
        "meta_epoch": "2025-12-26T02:10:38.891424",
        "meta_mean_motion": 1.00270604,
        "meta_eccentricity": 0.00019545,
        "meta_inclination": 0.032,
        "meta_ra_of_asc_node": 51.6122,
        "meta_arg_of_pericenter": 247.6605,
        "meta_mean_anomaly": 260.3158,
        "meta_ephemeris_type": 0,
        "meta_classification_type": "U",
        "meta_norad_cat_id": 38098,
        "meta_element_set_no": 999,
        "meta_rev_at_epoch": 545,
        "meta_bstar": 0,
        "meta_mean_motion_dot": 0,
        "meta_mean_motion_ddot": 0,
        "tle_line1": "1 38098U 12011A   25360.09072791  .00000000  00000+0  00000+0 0  9992",
        "tle_line2": "2 38098   0.0320  51.6122 0001954 247.6605 260.3158  1.00270604  5450"
      },
      "geometry": {
        "type": "Point",
        "coordinates": [
          39.89895246894876,
          8.22893918804027e-06
        ]
      }
    },
    {
      "type": "Feature",
      "properties": {
        "norad_id": 38356,
        "name": "INTELSAT 19 (IS-19)",
        "group": "intelsat",
        "lat": 0.016161122062286707,
        "lon": 133.77956129555662,
        "alt_km": 35795.48795658102,
        "timestamp": "2025-12-26T15:29:39.105990+00:00",
        "meta_object_name": "INTELSAT 19 (IS-19)",
        "meta_object_id": "2012-030A",
        "meta_epoch": "2025-12-26T05:07:38.649792",
        "meta_mean_motion": 1.00271976,
        "meta_eccentricity": 0.00029977,
        "meta_inclination": 0.0097,
        "meta_ra_of_asc_node": 339.6824,
        "meta_arg_of_pericenter": 292.3285,
        "meta_mean_anomaly": 65.8708,
        "meta_ephemeris_type": 0,
        "meta_classification_type": "U",
        "meta_norad_cat_id": 38356,
        "meta_element_set_no": 999,
        "meta_rev_at_epoch": 4871,
        "meta_bstar": 0,
        "meta_mean_motion_dot": -3.4e-07,
        "meta_mean_motion_ddot": 0,
        "tle_line1": "1 38356U 12030A   25360.21364178 -.00000034  00000+0  00000+0 0  9995",
        "tle_line2": "2 38356   0.0097 339.6824 0002997 292.3285  65.8708  1.00271976 48713"
      },
      "geometry": {
        "type": "Point",
        "coordinates": [
          133.77956129555662,
          0.016161122062286707
        ]
      }
    },
    {
      "type": "Feature",
      "properties": {
        "norad_id": 38740,
        "name": "INTELSAT 20 (IS-20)",
        "group": "intelsat",
        "lat": -0.0016376858322137645,
        "lon": 36.30303402804142,
        "alt_km": 35791.815875921755,
        "timestamp": "2025-12-26T15:29:39.106002+00:00",
        "meta_object_name": "INTELSAT 20 (IS-20)",
        "meta_object_id": "2012-043A",
        "meta_epoch": "2025-12-26T02:10:38.891424",
        "meta_mean_motion": 1.00277669,
        "meta_eccentricity": 0.00019573,
        "meta_inclination": 0.0128,
        "meta_ra_of_asc_node": 61.9497,
        "meta_arg_of_pericenter": 128.5096,
        "meta_mean_anomaly": 5.5509,
        "meta_ephemeris_type": 0,
        "meta_classification_type": "U",
        "meta_norad_cat_id": 38740,
        "meta_element_set_no": 999,
        "meta_rev_at_epoch": 4901,
        "meta_bstar": 0,
        "meta_mean_motion_dot": -4e-08,
        "meta_mean_motion_ddot": 0,
        "tle_line1": "1 38740U 12043A   25360.09072791 -.00000004  00000+0  00000+0 0  9996",
        "tle_line2": "2 38740   0.0128  61.9497 0001957 128.5096   5.5509  1.00277669 49010"
      },
      "geometry": {
        "type": "Point",
        "coordinates": [
          36.30303402804142,
          -0.0016376858322137645
        ]
      }
    },
    {
      "type": "Feature",
      "properties": {
        "norad_id": 38749,
        "name": "INTELSAT 21 (IS-21)",
        "group": "intelsat",
        "lat": -0.0326965645863867,
        "lon": -90.18934818055048,
        "alt_km": 35778.687991816616,
        "timestamp": "2025-12-26T15:29:39.106014+00:00",
        "meta_object_name": "INTELSAT 21 (IS-21)",
        "meta_object_id": "2012-045A",
        "meta_epoch": "2025-12-26T05:54:07.054272",
        "meta_mean_motion": 1.00271929,
        "meta_eccentricity": 0.00017513,
        "meta_inclination": 0.0183,
        "meta_ra_of_asc_node": 334.425,
        "meta_arg_of_pericenter": 292.8678,
        "meta_mean_anomaly": 218.2466,
        "meta_ephemeris_type": 0,
        "meta_classification_type": "U",
        "meta_norad_cat_id": 38749,
        "meta_element_set_no": 999,
        "meta_rev_at_epoch": 4879,
        "meta_bstar": 0,
        "meta_mean_motion_dot": -2.63e-06,
        "meta_mean_motion_ddot": 0,
        "tle_line1": "1 38749U 12045A   25360.24591498 -.00000263  00000+0  00000+0 0  9991",
        "tle_line2": "2 38749   0.0183 334.4250 0001751 292.8678 218.2466  1.00271929 48790"
      },
      "geometry": {
        "type": "Point",
        "coordinates": [
          -90.18934818055048,
          -0.0326965645863867
        ]
      }
    }
  ]
}